RADCAL                  
1 22698U 93041A   08261.11728358 -.00000066  00000-0 -34364-4 0  1480
2 22698  89.5212  41.8358 0091570 128.2279 232.7185 14.22800215790445
STRV 1A                 
1 23125U 94034B   08259.50233576  .00000995  00000-0  24740-3 0  2613
2 23125   7.2552 239.0402 6861065 354.4333   0.6333  2.82715148131630
STRV 1B                 
1 23126U 94034C   08259.59474390  .00001597  00000-0  27129-3 0  2820
2 23126   6.9558 187.0620 6810753  95.1403 339.3075  2.89821798133668
HELIOS 1A               
1 23605U 95033A   08261.17276495 -.00000023  00000-0  47044-5 0  4012
2 23605  98.1316 195.7747 0001592 139.2726 220.8599 14.63824680705237
REX 2                   
1 23814U 96014A   08260.57500794  .00000056  00000-0  19477-4 0  4854
2 23814  90.1519 267.3386 0024026 123.4629 236.8875 14.23848812650619
COSMOS 2346             
1 24953U 97052A   08260.57826185  .00000019  00000-0  35816-5 0  2647
2 24953  82.9254 160.5128 0039046 177.9618 182.1707 13.79432558552903
ARGOS                   
1 25634U 99008A   08260.57602084 -.00000215  00000-0 -80846-4 0  5248
2 25634  99.0467 286.6166 0010552  10.8599 349.2812 14.18895720495245
HELIOS 1B               
1 25977U 99064A   08261.06580769  .00000045  00000-0  13958-4 0  5597
2 25977  98.3237 246.4949 0002387  96.9268 263.2215 14.77617628471598
MTI                     
1 26102U 00014A   08261.10275618  .00000491  00000-0  32377-4 0  8880
2 26102  97.1978  74.7436 0019931 342.9032 134.2509 15.11559162468144
STRV 1C                 
1 26610U 00072C   08258.29731671 -.00000345  00000-0  00000-0 0  8243
2 26610   7.3011  10.2821 7338939 252.4069  21.5598  2.03461170 58202
OFEQ 5                  
1 27434U 02025A   08261.21002432  .00000835  00000-0  25347-4 0  4749
2 27434 143.4642  88.3985 0027080 278.4051  81.3623 15.05294616352137
HELIOS-2A               
1 28492U 04049A   08261.20612120  .00000041  00000-0  16958-4 0  2163
2 28492  98.1353 195.8473 0001444 111.9123 248.2237 14.63833957200205
ESSAIM-1                
1 28494U 04049C   08261.12225304  .00000088  00000-0  23030-4 0  2711
2 28494  98.2132 211.4466 0003621  39.6797 320.4677 14.70161117200966
ESSAIM-2                
1 28495U 04049D   08261.18986223  .00000113  00000-0  27169-4 0  3089
2 28495  98.2144 211.5999 0004504  30.8321 329.3155 14.70164070200970
ESSAIM-3                
1 28496U 04049E   08261.19050304 -.00000036  00000-0  25867-5 0  2395
2 28496  98.2260 215.4706 0009657  36.9526 323.2347 14.70161888201158
ESSAIM-4                
1 28497U 04049F   08261.19004142 -.00000022  00000-0  48238-5 0  2948
2 28497  98.2263 215.5048 0012832  31.8821 328.3161 14.70161481201152
SAR-LUPE 1              
1 29658U 06060A   08261.14029477  .00000491  00000-0  21968-4 0  9694
2 29658  98.1071 331.0449 0024005 125.5741 319.9269 15.26532480 97278
MIDSTAR-1               
1 30773U 07006B   08260.49473993 -.00000304  00000-0  00000+0 0  4360
2 30773  46.0312  15.8155 0010499 148.8045 211.3442 15.23568756 84991
CFESAT                  
1 30777U 07006F   08260.56250882  .00000231  00000-0  20118-4 0  4053
2 30777  35.4345 321.8769 0003582  31.3869 328.7061 15.02565776 83871
NFIRE                   
1 31140U 07014A   08261.10893507  .00292902  37782-4  85735-3 0  5757
2 31140  48.2219 238.5138 0142264 114.9303 246.6642 15.77382060 79631
OFEQ 7                  
1 31601U 07025A   08261.21259259  .00001345  00000-0  39402-4 0  4526
2 31601 141.7486 265.8750 0071134 164.9823  40.7097 15.18812940 70896
SAR-LUPE 2              
1 31797U 07030A   08261.13720943  .00000525  00000-0  23412-4 0  3669
2 31797  98.2063  37.9930 0016905  76.4288  27.7277 15.26532030 67499
SAR-LUPE 3              
1 32283U 07053A   08261.15257100  .00000324  00000-0  15732-4 0  9936
2 32283  98.1552 101.8035 0012232 178.9784 329.4355 15.26494943 49003
SAR-LUPE 4              
1 32750U 08014A   08261.12883697  .00000401  00000-0  18625-4 0  5347
2 32750  98.1448 331.7810 0022808 297.7537 148.6775 15.26534513 26456
SAR-LUPE 5              
1 33244U 08036A   08261.10962588  .00000313  00000-0  15499-4 0  1844
2 33244  98.1497 100.4863 0020801 345.9858 167.0673 15.25989673  8699
